NORAD_CAT_ID,OBJECT_NAME,OBJECT_TYPE,EPOCH,MEAN_MOTION,ECCENTRICITY,INCLINATION,RA_OF_ASC_NODE,ARG_OF_PERICENTER,MEAN_ANOMALY,BSTAR,MEAN_MOTION_DOT,MEAN_MOTION_DDOT,TLE_LINE0,TLE_LINE1,TLE_LINE2,SEMIMAJOR_AXIS,PERIOD,APOGEE,PERIGEE,DECAYED
55641.0,STARLINK-5065,PAYLOAD,2023-11-16 19:03:06,14.98740142,0.0004798,70.0012,152.2331,287.7013,72.3622,-0.006416,-0.0007664,0.0,0 STARLINK-5065,1 55641U 23021P   23320.79381979 -.00076640  00000-0 -64160-2 0  9996,2 55641  70.0012 152.2331 0004798 287.7013  72.3622 14.98740142 42082,6948.925,96.081,574.124,567.456,0.0
55641.0,STARLINK-5065,PAYLOAD,2023-11-17 12:39:59,14.9870525,0.0006137,69.998,150.3795,253.0487,106.9999,0.0039022,0.00047252,0.0,0 STARLINK-5065,1 55641U 23021P   23321.52777675  .00047252  00000-0  39022-2 0  9994,2 55641  69.9980 150.3795 0006137 253.0487 106.9999 14.98705250 42190,6949.033,96.083,575.162,566.633,0.0
55641.0,STARLINK-5065,PAYLOAD,2023-11-17 22:00:01,14.98310514,0.0003023,70.0005,149.4011,273.0599,22.0928,0.0027318,0.00032638,0.0,0 STARLINK-5065,1 55641U 23021P   23321.91668981  .00032638  00000-0  27318-2 0  9993,2 55641  70.0005 149.4011 0003023 273.0599  22.0928 14.98310514 42250,6950.253,96.108,574.219,570.017,0.0
55641.0,STARLINK-5065,PAYLOAD,2023-11-18 12:42:35,14.98326788,0.0002991,69.9987,147.8563,269.8014,90.2802,1.0627e-05,3.4e-07,0.0,0 STARLINK-5065,1 55641U 23021P   23322.52957203  .00000034  00000-0  10627-4 0  9991,2 55641  69.9987 147.8563 0002991 269.8014  90.2802 14.98326788 42346,6950.203,96.107,574.147,569.989,0.0
55641.0,STARLINK-5065,PAYLOAD,2023-11-19 14:00:01,14.98356694,0.0003098,70.0011,145.1991,267.2261,15.3251,-0.0024567,-0.00029304,0.0,0 STARLINK-5065,1 55641U 23021P   23323.58335648 -.00029304  00000-0 -24567-2 0  9990,2 55641  70.0011 145.1991 0003098 267.2261  15.3251 14.98356694  5780,6950.11,96.105,574.128,569.822,0.0
55641.0,STARLINK-5065,PAYLOAD,2023-11-19 22:00:00,14.98316576,0.0003044,70.0009,144.3587,273.9559,6.0398,0.0032497,0.00038884,0.0,0 STARLINK-5065,1 55641U 23021P   23323.91667824  .00038884  00000-0  32497-2 0  9993,2 55641  70.0009 144.3587 0003044 273.9559   6.0398 14.98316576  5788,6950.234,96.108,574.215,569.984,0.0
55641.0,STARLINK-5065,PAYLOAD,2023-11-20 00:00:00,14.98332459,0.0003074,70.0006,144.1485,274.123,95.2389,0.0010003,0.00011863,0.0,0 STARLINK-5065,1 55641U 23021P   23324.00001157  .00011863  00000-0  10003-2 0  9992,2 55641  70.0006 144.1485 0003074 274.1230  95.2389 14.98332459 42567,6950.185,96.107,574.187,569.914,0.0
55641.0,STARLINK-5065,PAYLOAD,2023-11-20 14:22:44,14.98333834,0.0002969,69.9988,142.638,270.3308,89.7511,4.5064e-05,4.45e-06,0.0,0 STARLINK-5065,1 55641U 23021P   23324.59912661  .00000445  00000-0  45064-4 0  9998,2 55641  69.9988 142.6380 0002969 270.3308  89.7511 14.98333834 42952,6950.181,96.107,574.11,569.983,0.0
55641.0,STARLINK-5065,PAYLOAD,2023-11-20 22:23:24,14.98335894,0.0002954,69.9989,141.7964,270.5128,89.5693,6.4111e-05,6.72e-06,0.0,0 STARLINK-5065,1 55641U 23021P   23324.93292371  .00000672  00000-0  64111-4 0  9991,2 55641  69.9989 141.7964 0002954 270.5128  89.5693 14.98335894 43001,6950.175,96.107,574.093,569.987,0.0
55641.0,STARLINK-5065,PAYLOAD,2023-11-21 12:48:37,14.98331807,0.0002926,69.9989,140.2816,270.1619,89.9204,-1.8627e-05,-3.15e-06,0.0,0 STARLINK-5065,1 55641U 23021P   23325.53376708 -.00000315  00000-0 -18627-4 0  9992,2 55641  69.9989 140.2816 0002926 270.1619  89.9204 14.98331807 43092,6950.187,96.107,574.086,570.019,0.0
55641.0,STARLINK-5065,PAYLOAD,2023-11-21 20:49:17,14.98332753,0.0002893,69.9989,139.4403,268.8842,91.1986,-7.1483e-06,-1.78e-06,0.0,0 STARLINK-5065,1 55641U 23021P   23325.86756543 -.00000178  00000-0 -71483-5 0  9994,2 55641  69.9989 139.4403 0002893 268.8842  91.1986 14.98332753 43148,6950.184,96.107,574.06,570.039,0.0
55641.0,STARLINK-5065,PAYLOAD,2023-11-22 14:26:46,14.98334758,0.0002802,69.9989,137.5882,265.0076,95.0763,-2.4382e-05,-3.84e-06,0.0,0 STARLINK-5065,1 55641U 23021P   23326.60192253 -.00000384  00000-0 -24382-4 0  9993,2 55641  69.9989 137.5882 0002802 265.0076  95.0763 14.98334758 43251,6950.178,96.107,573.991,570.096,0.0
55641.0,STARLINK-5065,PAYLOAD,2023-11-22 19:15:09,14.98345201,0.0002748,69.9995,137.0838,266.4664,93.6181,0.00010419,1.151e-05,0.0,0 STARLINK-5065,1 55641U 23021P   23326.80219164  .00001151  00000-0  10419-3 0  9992,2 55641  69.9995 137.0838 0002748 266.4664  93.6181 14.98345201 42983,6950.146,96.106,573.921,570.101,0.0
55641.0,STARLINK-5065,PAYLOAD,2023-11-22 20:51:17,14.98347867,0.000285,69.9994,136.9158,260.0587,100.025,0.00012895,1.447e-05,0.0,0 STARLINK-5065,1 55641U 23021P   23326.86894812  .00001447  00000-0  12895-3 0  9995,2 55641  69.9994 136.9158 0002850 260.0587 100.0250 14.98347867 43298,6950.138,96.106,573.983,570.022,0.0
55641.0,STARLINK-5065,PAYLOAD,2023-11-23 03:15:21,14.98669942,0.0002938,69.9996,136.2411,279.8065,80.2762,0.0035266,0.00042616,0.0,0 STARLINK-5065,1 55641U 23021P   23327.13566576  .00042616  00000-0  35266-2 0  9998,2 55641  69.9996 136.2411 0002938 279.8065  80.2762 14.98669942 43031,6949.142,96.085,573.049,568.965,0.0
55641.0,STARLINK-5065,PAYLOAD,2023-11-23 14:28:32,14.98432855,0.0002436,69.9999,135.0634,245.4882,114.6023,0.00080341,9.531e-05,0.0,0 STARLINK-5065,1 55641U 23021P   23327.60315892  .00009531  00000-0  80341-3 0  9997,2 55641  69.9999 135.0634 0002436 245.4882 114.6023 14.98432855 43401,6949.875,96.1,573.433,570.047,0.0
55641.0,STARLINK-5065,PAYLOAD,2023-11-23 19:17:11,14.98324861,0.0002784,69.9987,134.5578,263.9795,96.1047,-5.0981e-05,-7.01e-06,0.0,0 STARLINK-5065,1 55641U 23021P   23327.80360502 -.00000701  00000-0 -50981-4 0  9997,2 55641  69.9987 134.5578 0002784 263.9795  96.1047 14.98324861 43130,6950.209,96.107,574.009,570.139,0.0
55641.0,STARLINK-5065,PAYLOAD,2023-11-23 20:53:19,14.98326235,0.0002881,69.9987,134.3895,264.904,95.179,-4.9609e-05,-6.85e-06,0.0,0 STARLINK-5065,1 55641U 23021P   23327.87036413 -.00000685  00000-0 -49609-4 0  9991,2 55641  69.9987 134.3895 0002881 264.9040  95.1790 14.98326235 43447,6950.205,96.107,574.072,570.067,0.0
55641.0,STARLINK-5065,PAYLOAD,2023-11-24 14:30:48,14.98325682,0.0003062,69.9988,132.5381,268.3012,91.7797,-6.9408e-05,-9.21e-06,0.0,0 STARLINK-5065,1 55641U 23021P   23328.60472652 -.00000921  00000-0 -69408-4 0  9994,2 55641  69.9988 132.5381 0003062 268.3012  91.7797 14.98325682 43553,6950.206,96.107,574.199,569.943,0.0
55641.0,STARLINK-5065,PAYLOAD,2023-11-24 19:19:12,14.98327058,0.000305,69.9988,132.0331,268.0934,91.9875,-4.433e-05,-6.22e-06,0.0,0 STARLINK-5065,1 55641U 23021P   23328.80500530 -.00000622  00000-0 -44330-4 0  9998,2 55641  69.9988 132.0331 0003050 268.0934  91.9875 14.98327058 43288,6950.202,96.107,574.187,569.947,0.0
55641.0,STARLINK-5065,PAYLOAD,2023-11-24 20:55:20,14.98327818,0.0002865,69.9989,131.8648,264.0002,96.0831,-3.7193e-05,-5.37e-06,0.0,0 STARLINK-5065,1 55641U 23021P   23328.87176465 -.00000537  00000-0 -37193-4 0  9995,2 55641  69.9989 131.8648 0002865 264.0002  96.0831 14.98327818 43598,6950.2,96.107,574.056,570.073,0.0
55641.0,STARLINK-5065,PAYLOAD,2023-11-25 14:32:48,14.98328357,0.0003136,69.9988,130.0134,268.0563,92.0237,0.00010603,1.172e-05,0.0,0 STARLINK-5065,1 55641U 23021P   23329.60611941  .00001172  00000-0  10603-3 0  9990,2 55641  69.9988 130.0134 0003136 268.0563  92.0237 14.98328357 43704,6950.198,96.107,574.243,569.883,0.0
55641.0,STARLINK-5065,PAYLOAD,2023-11-25 20:57:20,14.983337,0.0003114,69.9988,129.3401,268.4318,91.6485,0.00015473,1.754e-05,0.0,0 STARLINK-5065,1 55641U 23021P   23329.87315462  .00001754  00000-0  15473-3 0  9994,2 55641  69.9988 129.3401 0003114 268.4318  91.6485 14.98333700 43742,6950.181,96.107,574.211,569.882,0.0
55641.0,STARLINK-5065,PAYLOAD,2023-11-26 14:34:49,14.98333145,0.0002834,69.9995,127.4885,269.2088,90.8747,0.00011704,1.304e-05,0.0,0 STARLINK-5065,1 55641U 23021P   23330.60751511  .00001304  00000-0  11704-3 0  9990,2 55641  69.9995 127.4885 0002834 269.2088  90.8747 14.98333145 43853,6950.183,96.107,574.018,570.078,0.0
55641.0,STARLINK-5065,PAYLOAD,2023-11-26 19:23:13,14.98332789,0.0002859,69.9995,126.9836,269.2708,90.8123,9.8893e-05,1.087e-05,0.0,0 STARLINK-5065,1 55641U 23021P   23330.80779502  .00001087  00000-0  98893-4 0  9995,2 55641  69.9995 126.9836 0002859 269.2708  90.8123 14.98332789 43580,6950.184,96.107,574.036,570.062,0.0
55641.0,STARLINK-5065,PAYLOAD,2023-11-26 20:59:20,14.98364129,0.0002776,69.9996,126.816,261.9551,98.1294,-0.00040511,-4.928e-05,0.0,0 STARLINK-5065,1 55641U 23021P   23330.87454619 -.00004928  00000-0 -40511-3 0  9993,2 55641  69.9996 126.8160 0002776 261.9551  98.1294 14.98364129 43890,6950.087,96.105,573.882,570.023,0.0
55641.0,STARLINK-5065,PAYLOAD,2023-11-27 11:24:34,14.98325671,0.000245,70.0024,125.3026,246.8356,113.2545,-2.7801e-05,-4.25e-06,0.0,0 STARLINK-5065,1 55641U 23021P   23331.47540217 -.00000425  00000-0 -27801-4 0  9996,2 55641  70.0024 125.3026 0002450 246.8356 113.2545 14.98325671 43688,6950.206,96.107,573.774,570.368,0.0
55641.0,STARLINK-5065,PAYLOAD,2023-11-27 14:36:51,14.98322414,0.0002642,70.0005,124.9657,251.8126,108.2745,-0.00012771,-1.616e-05,0.0,0 STARLINK-5065,1 55641U 23021P   23331.60892690 -.00001616  00000-0 -12771-3 0  9998,2 55641  70.0005 124.9657 0002642 251.8126 108.2745 14.98322414 44001,6950.216,96.107,573.918,570.245,0.0
55641.0,STARLINK-5065,PAYLOAD,2023-11-27 17:49:07,14.98333699,0.0002608,69.9998,124.6283,258.2697,101.8169,-0.0002382,-2.934e-05,0.0,0 STARLINK-5065,1 55641U 23021P   23331.74244351 -.00002934  00000-0 -23820-3 0  9999,2 55641  69.9998 124.6283 0002608 258.2697 101.8169 14.98333699 44025,6950.181,96.107,573.859,570.234,0.0
55641.0,STARLINK-5065,PAYLOAD,2023-11-28 11:26:35,14.98330162,0.00031,69.9997,122.7769,269.6081,90.4723,-6.0904e-05,-8.2e-06,0.0,0 STARLINK-5065,1 55641U 23021P   23332.47680074 -.00000820  00000-0 -60904-4 0  9993,2 55641  69.9997 122.7769 0003100 269.6081  90.4723 14.98330162 43832,6950.192,96.107,574.212,569.903,0.0
